{"type": "FeatureCollection", "features": [ {"type": "Feature", "properties": {"norad_id": 33779, "name": "COSMOS 2251 DEB", "group": "cosmos-2251-debris", "lat": -29.969716838353698, "lon": 155.96114223149715, "alt_km": 672.6777706390712, "timestamp": "2025-12-15T10:55:21.537117+00:00", "meta": {"OBJECT_NAME": "COSMOS 2251 DEB", "OBJECT_ID": "1993-036U", "EPOCH": "2025-12-14T18:48:26.043264", "MEAN_MOTION": 14.70508504, "ECCENTRICITY": 0.00168554, "INCLINATION": 74.0443, "RA_OF_ASC_NODE": 166.7588, "ARG_OF_PERICENTER": 199.9402, "MEAN_ANOMALY": 175.4946, "EPHEMERIS_TYPE": 0, "CLASSIFICATION_TYPE": "U", "NORAD_CAT_ID": 33779, "ELEMENT_SET_NO": 999, "REV_AT_EPOCH": 88558, "BSTAR": 0.0017246027, "MEAN_MOTION_DOT": 0.00010471, "MEAN_MOTION_DDOT": 0}, "tle": {"line1": "1 33779U 93036U   25348.78363476  .00010471  00000+0  17246-2 0  9990", "line2": "2 33779  74.0443 166.7588 0016855 199.9402 175.4946 14.70508504885587"}}, "geometry": {"type": "Point", "coordinates": [155.96114223149715, -29.969716838353698]}}, {"type": "Feature", "properties": {"norad_id": 33782, "name": "COSMOS 2251 DEB", "group": "cosmos-2251-debris", "lat": 22.85695365782375, "lon": 85.59331203100788, "alt_km": 771.1111027721336, "timestamp": "2025-12-15T10:55:21.537128+00:00", "meta": {"OBJECT_NAME": "COSMOS 2251 DEB", "OBJECT_ID": "1993-036X", "EPOCH": "2025-12-14T19:20:31.568352", "MEAN_MOTION": 14.40455206, "ECCENTRICITY": 0.00208486, "INCLINATION": 74.0335, "RA_OF_ASC_NODE": 273.725, "ARG_OF_PERICENTER": 338.1498, "MEAN_ANOMALY": 52.8101, "EPHEMERIS_TYPE": 0, "CLASSIFICATION_TYPE": "U", "NORAD_CAT_ID": 33782, "ELEMENT_SET_NO": 999, "REV_AT_EPOCH": 88156, "BSTAR": 0.00044766699, "MEAN_MOTION_DOT": 1.4e-05, "MEAN_MOTION_DDOT": 0}, "tle": {"line1": "1 33782U 93036X   25348.80592093  .00001400  00000+0  44767-3 0  9997", "line2": "2 33782  74.0335 273.7250 0020848 338.1498  52.8101 14.40455206881567"}}, "geometry": {"type": "Point", "coordinates": [85.59331203100788, 22.85695365782375]}}, {"type": "Feature", "properties": {"norad_id": 33785, "name": "COSMOS 2251 DEB", "group": "cosmos-2251-debris", "lat": -54.55503778828903, "lon": 30.612510522626213, "alt_km": 656.071993760338, "timestamp": "2025-12-15T10:55:21.537139+00:00", "meta": {"OBJECT_NAME": "COSMOS 2251 DEB", "OBJECT_ID": "1993-036AA", "EPOCH": "2025-12-14T16:09:08.991936", "MEAN_MOTION": 14.70544995, "ECCENTRICITY": 0.00224675, "INCLINATION": 73.8674, "RA_OF_ASC_NODE": 56.1373, "ARG_OF_PERICENTER": 355.2, "MEAN_ANOMALY": 128.3859, "EPHEMERIS_TYPE": 0, "CLASSIFICATION_TYPE": "U", "NORAD_CAT_ID": 33785, "ELEMENT_SET_NO": 999, "REV_AT_EPOCH": 88535, "BSTAR": 0.0014855896, "MEAN_MOTION_DOT": 9.035e-05, "MEAN_MOTION_DDOT": 0}, "tle": {"line1": "1 33785U 93036AA  25348.67302074  .00009035  00000+0  14856-2 0  9990", "line2": "2 33785  73.8674  56.1373 0022467 355.2000 128.3859 14.70544995885357"}}, "geometry": {"type": "Point", "coordinates": [30.612510522626213, -54.55503778828903]}}, {"type": "Feature", "properties": {"norad_id": 33789, "name": "COSMOS 2251 DEB", "group": "cosmos-2251-debris", "lat": 38.85682786042718, "lon": 96.10571227395941, "alt_km": 1090.4833917231854, "timestamp": "2025-12-15T10:55:21.537150+00:00", "meta": {"OBJECT_NAME": "COSMOS 2251 DEB", "OBJECT_ID": "1993-036AE", "EPOCH": "2025-12-14T23:12:37.254240", "MEAN_MOTION": 13.88800415, "ECCENTRICITY": 0.02401128, "INCLINATION": 74.0645, "RA_OF_ASC_NODE": 83.626, "ARG_OF_PERICENTER": 198.7605, "MEAN_ANOMALY": 284.1736, "EPHEMERIS_TYPE": 0, "CLASSIFICATION_TYPE": "U", "NORAD_CAT_ID": 33789, "ELEMENT_SET_NO": 999, "REV_AT_EPOCH": 85126, "BSTAR": 0.00074512916, "MEAN_MOTION_DOT": 1.109e-05, "MEAN_MOTION_DDOT": 0}, "tle": {"line1": "1 33789U 93036AE  25348.96709785  .00001109  00000+0  74513-3 0  9997", "line2": "2 33789  74.0645  83.6260 0240112 198.7605 284.1736 13.88800415851260"}}, "geometry": {"type": "Point", "coordinates": [96.10571227395941, 38.85682786042718]}}, {"type": "Feature", "properties": {"norad_id": 33791, "name": "COSMOS 2251 DEB", "group": "cosmos-2251-debris", "lat": 73.68749301051203, "lon": 108.30099815033023, "alt_km": 758.1153668985153, "timestamp": "2025-12-15T10:55:21.537161+00:00", "meta": {"OBJECT_NAME": "COSMOS 2251 DEB", "OBJECT_ID": "1993-036AG", "EPOCH": "2025-12-14T22:02:09.633984", "MEAN_MOTION": 14.43136406, "ECCENTRICITY": 0.00304417, "INCLINATION": 74.1757, "RA_OF_ASC_NODE": 33.5699, "ARG_OF_PERICENTER": 230.4328, "MEAN_ANOMALY": 307.3725, "EPHEMERIS_TYPE": 0, "CLASSIFICATION_TYPE": "U", "NORAD_CAT_ID": 33791, "ELEMENT_SET_NO": 999, "REV_AT_EPOCH": 88083, "BSTAR": 0.00062590126, "MEAN_MOTION_DOT": 2.088e-05, "MEAN_MOTION_DDOT": 0}, "tle": {"line1": "1 33791U 93036AG  25348.91816706  .00002088  00000+0  62590-3 0  9996", "line2": "2 33791  74.1757  33.5699 0030441 230.4328 307.3725 14.43136406880831"}}, "geometry": {"type": "Point", "coordinates": [108.30099815033023, 73.68749301051203]}}, {"type": "Feature", "properties": {"norad_id": 33792, "name": "COSMOS 2251 DEB", "group": "cosmos-2251-debris", "lat": -71.93875743862705, "lon": -136.66931772341616, "alt_km": 1345.868146546156, "timestamp": "2025-12-15T10:55:21.537172+00:00", "meta": {"OBJECT_NAME": "COSMOS 2251 DEB", "OBJECT_ID": "1993-036AH", "EPOCH": "2025-12-14T23:03:13.398336", "MEAN_MOTION": 13.45825882, "ECCENTRICITY": 0.04271758, "INCLINATION": 73.901, "RA_OF_ASC_NODE": 341.7976, "ARG_OF_PERICENTER": 46.0382, "MEAN_ANOMALY": 343.5063, "EPHEMERIS_TYPE": 0, "CLASSIFICATION_TYPE": "U", "NORAD_CAT_ID": 33792, "ELEMENT_SET_NO": 999, "REV_AT_EPOCH": 82472, "BSTAR": 0.00088734281, "MEAN_MOTION_DOT": 9e-06, "MEAN_MOTION_DDOT": 0}, "tle": {"line1": "1 33792U 93036AH  25348.96057174  .00000900  00000+0  88734-3 0  9997", "line2": "2 33792  73.9010 341.7976 0427175  46.0382 343.5063 13.45825882824725"}}, "geometry": {"type": "Point", "coordinates": [-136.66931772341616, -71.93875743862705]}}, {"type": "Feature", "properties": {"norad_id": 33793, "name": "COSMOS 2251 DEB", "group": "cosmos-2251-debris", "lat": 0.8685578679265616, "lon": -35.26704912393351, "alt_km": 825.766117316236, "timestamp": "2025-12-15T10:55:21.537183+00:00", "meta": {"OBJECT_NAME": "COSMOS 2251 DEB", "OBJECT_ID": "1993-036AJ", "EPOCH": "2025-12-14T21:20:16.932768", "MEAN_MOTION": 14.27730347, "ECCENTRICITY": 0.00785497, "INCLINATION": 73.9804, "RA_OF_ASC_NODE": 146.0109, "ARG_OF_PERICENTER": 295.6911, "MEAN_ANOMALY": 215.9849, "EPHEMERIS_TYPE": 0, "CLASSIFICATION_TYPE": "U", "NORAD_CAT_ID": 33793, "ELEMENT_SET_NO": 999, "REV_AT_EPOCH": 87237, "BSTAR": 0.00061454085, "MEAN_MOTION_DOT": 1.541e-05, "MEAN_MOTION_DDOT": 0}, "tle": {"line1": "1 33793U 93036AJ  25348.88908487  .00001541  00000+0  61454-3 0  9993", "line2": "2 33793  73.9804 146.0109 0078549 295.6911 215.9849 14.27730347872378"}}, "geometry": {"type": "Point", "coordinates": [-35.26704912393351, 0.8685578679265616]}}, {"type": "Feature", "properties": {"norad_id": 33795, "name": "COSMOS 2251 DEB", "group": "cosmos-2251-debris", "lat": 12.968766199111432, "lon": -112.61113852294163, "alt_km": 529.3835575100029, "timestamp": "2025-12-15T10:55:21.537193+00:00", "meta": {"OBJECT_NAME": "COSMOS 2251 DEB", "OBJECT_ID": "1993-036AL", "EPOCH": "2025-12-14T15:36:10.610784", "MEAN_MOTION": 15.05600218, "ECCENTRICITY": 0.00312217, "INCLINATION": 74.032, "RA_OF_ASC_NODE": 72.8198, "ARG_OF_PERICENTER": 155.0681, "MEAN_ANOMALY": 329.9088, "EPHEMERIS_TYPE": 0, "CLASSIFICATION_TYPE": "U", "NORAD_CAT_ID": 33795, "ELEMENT_SET_NO": 999, "REV_AT_EPOCH": 90050, "BSTAR": 0.0010437402, "MEAN_MOTION_DOT": 0.0001521, "MEAN_MOTION_DDOT": 0}, "tle": {"line1": "1 33795U 93036AL  25348.65012281  .00015210  00000+0  10437-2 0  9990", "line2": "2 33795  74.0320  72.8198 0031221 155.0681 329.9088 15.05600218900506"}}, "geometry": {"type": "Point", "coordinates": [-112.61113852294163, 12.968766199111432]}}, {"type": "Feature", "properties": {"norad_id": 33797, "name": "COSMOS 2251 DEB", "group": "cosmos-2251-debris", "lat": -56.75797498121394, "lon": -124.32631781363234, "alt_km": 730.3018086692509, "timestamp": "2025-12-15T10:55:21.537204+00:00", "meta": {"OBJECT_NAME": "COSMOS 2251 DEB", "OBJECT_ID": "1993-036AN", "EPOCH": "2025-12-14T14:48:41.996736", "MEAN_MOTION": 14.57856415, "ECCENTRICITY": 0.00606159, "INCLINATION": 74.0481, "RA_OF_ASC_NODE": 31.3914, "ARG_OF_PERICENTER": 118.721, "MEAN_ANOMALY": 45.0456, "EPHEMERIS_TYPE": 0, "CLASSIFICATION_TYPE": "U", "NORAD_CAT_ID": 33797, "ELEMENT_SET_NO": 999, "REV_AT_EPOCH": 89012, "BSTAR": 0.00040685532, "MEAN_MOTION_DOT": 1.881e-05, "MEAN_MOTION_DDOT": 0}, "tle": {"line1": "1 33797U 93036AN  25348.61715274  .00001881  00000+0  40686-3 0  9999", "line2": "2 33797  74.0481  31.3914 0060615 118.7210  45.0456 14.57856415890124"}}, "geometry": {"type": "Point", "coordinates": [-124.32631781363234, -56.75797498121394]}}, {"type": "Feature", "properties": {"norad_id": 33798, "name": "COSMOS 2251 DEB", "group": "cosmos-2251-debris", "lat": -8.866083949794257, "lon": 128.28732732043207, "alt_km": 757.0042419958854, "timestamp": "2025-12-15T10:55:21.537214+00:00", "meta": {"OBJECT_NAME": "COSMOS 2251 DEB", "OBJECT_ID": "1993-036AP", "EPOCH": "2025-12-14T20:43:13.781280", "MEAN_MOTION": 14.44616823, "ECCENTRICITY": 0.00924757, "INCLINATION": 74.0284, "RA_OF_ASC_NODE": 131.9497, "ARG_OF_PERICENTER": 252.8625, "MEAN_ANOMALY": 260.7265, "EPHEMERIS_TYPE": 0, "CLASSIFICATION_TYPE": "U", "NORAD_CAT_ID": 33798, "ELEMENT_SET_NO": 999, "REV_AT_EPOCH": 88624, "BSTAR": 0.00018754275, "MEAN_MOTION_DOT": 6.54e-06, "MEAN_MOTION_DDOT": 0}, "tle": {"line1": "1 33798U 93036AP  25348.86335395  .00000654  00000+0  18754-3 0  9997", "line2": "2 33798  74.0284 131.9497 0092475 252.8625 260.7265 14.44616823886243"}}, "geometry": {"type": "Point", "coordinates": [128.28732732043207, -8.866083949794257]}}]}